CUBESAT XI-IV (CO-57)   
1 27848U 03031J   22355.47844042  .00000302  00000+0  15603-3 0  9998
2 27848  98.6832   0.8338 0008791 298.2955  61.7335 14.22105621 10240
CUBESAT XI-V            
1 28895U 05043F   22355.31334991  .00001435  00000+0  27801-3 0  9997
2 28895  98.1300 124.1398 0015284 273.1085  86.8369 14.64744640914766
CUTE-1.7+APD II (CO-65) 
1 32785U 08021C   22355.46660381  .00003615  00000+0  37607-3 0  9997
2 32785  97.6828 320.7365 0012029 341.5455  18.5326 14.90421159794331
AAUSAT-II               
1 32788U 08021F   22355.16799235  .00008129  00000+0  66778-3 0  9994
2 32788  97.5534 334.2778 0009160 198.8548 161.2338 14.99398470796398
DELFI-C3 (DO-64)        
1 32789U 08021G   22355.53141236  .00022575  00000+0  10697-2 0  9997
2 32789  97.3241  15.5257 0010414  40.4505 319.7502 15.19272204800277
SEEDS II (CO-66)        
1 32791U 08021J   22354.87266819  .00005019  00000+0  47673-3 0  9990
2 32791  97.6345 325.4739 0010932 292.3427  67.6634 14.93889534795013
SWISSCUBE               
1 35932U 09051B   22355.37884660  .00001014  00000+0  23562-3 0  9992
2 35932  98.5432 216.3237 0007178 185.2797 174.8326 14.57142890703317
BEESAT-1                
1 35933U 09051C   22355.19639502  .00000893  00000+0  20890-3 0  9991
2 35933  98.5366 217.6263 0005159 196.2544 163.8488 14.57124397703360
ITUPSAT1                
1 35935U 09051E   22355.32904934  .00000826  00000+0  19791-3 0  9996
2 35935  98.5465 217.7666 0007399 203.3095 156.7767 14.56214686703078
TISAT 1                 
1 36799U 10035E   22355.19581576  .00003961  00000+0  37738-3 0  9991
2 36799  98.1580 212.8950 0010931 196.7459 163.3401 14.93952850675630
M-CUBED & EXP-1 PRIME   
1 37855U 11061F   22355.57022313  .00016715  00000+0  66263-3 0  9992
2 37855 101.7133 214.6081 0141526 220.1392 138.9304 15.16731022609557
AEROCUBE 4.5A           
1 38767U 12048K   22355.54223134  .00005958  00000+0  41550-3 0  9991
2 38767  64.6651 242.6276 0157765 210.7223 148.4586 14.96764618178765
AEROCUBE 4.5B           
1 38768U 12048L   22355.52151575  .00010399  00000+0  64182-3 0  9990
2 38768  64.6640 192.6346 0141148 205.9415 153.4582 15.02346855179224
STRAND-1                
1 39090U 13009E   22355.47154176  .00000325  00000+0  12815-3 0  9995
2 39090  98.3914 188.6541 0010116  75.8660 284.3649 14.35390729514224
BRITE-AUSTRIA           
1 39091U 13009F   22355.52979475  .00000220  00000+0  91474-4 0  9992
2 39091  98.3936 187.9099 0011615  81.7265 278.5238 14.35344348514260
SOMP                    
1 39134U 13015E   22355.20335520  .00032018  00000+0  90840-3 0  9994
2 39134  64.8571 166.2560 0028943 253.6733 106.1218 15.35667566535455
BEESAT-3                
1 39135U 13015F   22355.57074413  .00017882  00000+0  62841-3 0  9998
2 39135  64.8627 206.3336 0034619 254.4217 105.3092 15.28915106534669
BEESAT-2                
1 39136U 13015G   22355.36597730  .00016858  00000+0  62415-3 0  9997
2 39136  64.8720 216.4381 0025264 288.2224  71.6157 15.27503145534410
NEE-01 PEGASO           
1 39151U 13018B   22355.50361606  .00002078  00000+0  27131-3 0  9999
2 39151  98.0012 100.6976 0016790  13.5934 346.5728 14.81507385521373
ESTCUBE 1               
1 39161U 13021C   22355.21276867  .00001654  00000+0  26273-3 0  9991
2 39161  97.8919  67.4754 0009016 175.4565 184.6726 14.73380013516968
POPACS 1                
1 39268U 13055D   22355.08162117  .00019323  00000+0  46754-3 0  9991
2 39268  80.9941  37.7988 0543707 354.3571   5.1642 14.57336648480419
POPACS 2                
1 39269U 13055E   22355.57470949  .00020798  00000+0  55371-3 0  9994
2 39269  81.0114 100.1021 0630804 155.7144 207.5215 14.37041349477016
POPACS 3                
1 39270U 13055F   22355.35448143  .00007656  00000+0  23191-3 0  9996
2 39270  81.0133 136.7232 0679009 259.1829  93.2270 14.24124319455211
ZACUBE-1 (TSHEPISOSAT)  
1 39417U 13066B   22355.43960986  .00002519  00000+0  30629-3 0  9991
2 39417  97.6621 318.8366 0057421 149.9756 210.4772 14.83161694490832
WNISAT-1                
1 39423U 13066H   22355.46063812  .00001040  00000+0  21356-3 0  9998
2 39423  97.7229 222.8900 0172764 273.4399  84.7048 14.53720876481610
TRITON-1                
1 39427U 13066M   22355.28068077  .00003057  00000+0  47570-3 0  9996
2 39427  97.8274 283.1177 0111556  27.9976 332.7171 14.69583488486213
DELFI-N3XT              
1 39428U 13066N   22355.35538099  .00004794  00000+0  72402-3 0  9992
2 39428  97.8273 281.8759 0116501  40.3607 320.6173 14.70203237485983
GOMX-1                  
1 39430U 13066Q   22355.49928953  .00001522  00000+0  27618-3 0  9997
2 39430  97.7958 251.9178 0148017 174.3851 185.9045 14.60742149483598
CUBEBUG-2 (LO-74)       
1 39440U 13066AA  22355.46219264  .00002630  00000+0  35636-3 0  9993
2 39440  97.7515 305.4707 0076191 244.3721 114.9605 14.77771896487898
NEE-02 KRYSAOR          
1 39441U 13066AB  22355.29689241  .00002021  00000+0  28475-3 0  9998
2 39441  97.7626 302.3680 0078317 260.1812  99.0549 14.76285529487596
FUNCUBE-1 (AO-73)       
1 39444U 13066AE  22355.44563220  .00003184  00000+0  37418-3 0  9994
2 39444  97.6489 321.2853 0056373 136.9706 223.5938 14.84420026489250
UWE-3                   
1 39446U 13066AG  22355.42933011  .00002430  00000+0  31341-3 0  9995
2 39446  97.7119 311.7495 0066957 198.4290 161.4496 14.80356396488701
AEROCUBE 5A             
1 39465U 13072D   22354.76996820  .00070469  00000+0  25719-2 0  9994
2 39465 120.4805 296.9632 0161620 112.9930 248.8277 15.16159772177666
BRITE-CA1 (TORONTO)     
1 40020U 14033L   22355.42172075  .00000729  00000+0  13028-3 0  9996
2 40020  97.7997 145.1722 0087029  28.0711 332.5147 14.67331366455079
DUCHIFAT-1              
1 40021U 14033M   22355.33032637  .00005385  00000+0  50472-3 0  9993
2 40021  98.0359 309.3245 0012551 137.6843 222.5347 14.94404782462599
NANOSATC-BR1            
1 40024U 14033Q   22355.42570824  .00004361  00000+0  42461-3 0  9993
2 40024  98.0077 301.7486 0012104 143.4436 216.7611 14.93001711462389
QB50P1                  
1 40025U 14033R   22355.36876878  .00003786  00000+0  38312-3 0  9995
2 40025  97.9788 294.4910 0012221 154.9064 205.2750 14.91545256462125
QB50P2                  
1 40032U 14033Y   22355.40294713  .00003020  00000+0  31170-3 0  9996
2 40032  97.9532 289.1559 0011720 152.3435 207.8408 14.90899047461460
PERSEUS-M2              
1 40037U 14033AD  22355.34025564  .00001404  00000+0  16072-3 0  9998
2 40037  97.9028 276.5647 0013960 178.9913 181.1334 14.87517308460909
PERSEUS-M1              
1 40039U 14033AF  22355.51924899  .00001459  00000+0  16835-3 0  9995
2 40039  97.8908 274.1384 0013837 177.4382 182.6907 14.87122742460801
POLYITAN-1              
1 40042U 14033AJ  22355.43558056  .00004556  00000+0  45661-3 0  9998
2 40042  97.9898 296.0361 0014344 147.7479 212.4619 14.91802418461514
TIGRISAT                
1 40043U 14033AK  22355.50272656  .00001808  00000+0  26618-3 0  9994
2 40043  97.6539 174.7478 0057368 270.3899  89.0737 14.75463753457204
AEROCUBE 6A             
1 40045U 14033AM  22355.49795058  .00003046  00000+0  42914-3 0  9993
2 40045  97.6549 184.0367 0055114 256.6723 102.8339 14.76939396457628
AEROCUBE 6B             
1 40046U 14033AN  22355.48325021  .00003901  00000+0  54028-3 0  9991
2 40046  97.6473 182.4338 0053724 254.4191 105.1086 14.77564050457778
UKUBE-1                 
1 40074U 14037F   22355.50747302  .00003467  00000+0  40078-3 0  9996
2 40074  98.3590 245.7879 0005291  49.9917 310.1739 14.86267038457846
BRITE-PL2 (HEWELIUSZ)   
1 40119U 14049B   22355.48836597  .00001515  00000+0  18102-3 0  9996
2 40119  97.8845  89.2476 0016850 354.9331   5.1710 14.85582952451779
FIREBIRD 4              
1 40378U 15003C   22355.30740267  .00033590  00000+0  79046-3 0  9995
2 40378  99.0799 262.9865 0085223 107.3675 253.6907 15.38108844437057
GRIFEX                  
1 40379U 15003D   22355.43000507  .00016194  00000+0  50494-3 0  9993
2 40379  99.0869 246.5624 0104899 157.2514 203.3419 15.28050884436120
CP10 (EXOCUBE)          
1 40380U 15003E   22355.49001327  .00013981  00000+0  49267-3 0  9999
2 40380  99.0966 238.3673 0114970 185.1158 174.8908 15.23304151435597
TIANWANG 1A (TW-1A)     
1 40928U 15051D   22355.57477697  .00802492  33409-3  11256-2 0  9998
2 40928  97.0051  19.6786 0003575  80.9364  74.2093 16.05892071407638
EXACTVIEW 9             
1 40936U 15052G   22353.28762304  .00002292  00000+0  22491-3 0  9997
2 40936   6.0039 294.0055 0010910 256.0802 103.8112 14.77580995390598
AEROCUBE 5C             
1 40965U 15058B   22354.10910120  .00001586  00000+0  19918-3 0  9993
2 40965  64.7773 247.7656 0169071 137.3489 224.0888 14.76304131176361
AEROCUBE 7              
1 40966U 15058C   22354.50276232  .00002391  00000+0  28721-3 0  9994
2 40966  64.7783 243.2144 0166561 136.7315 224.7014 14.77027175176435
ATHENOXAT 1             
1 41168U 15077C   22354.78860977  .00028909  00000+0  10025-2 0  9995
2 41168  14.9850 143.6495 0007411 351.1367  47.7362 15.27624226388779
GALASSIA                
1 41170U 15077E   22354.08323471  .00022226  00000+0  82660-3 0  9995
2 41170  14.9862 142.5419 0010082   5.8360 354.2079 15.25075451388558
VELOX-II                
1 41171U 15077F   22354.76737970  .00013776  00000+0  60011-3 0  9990
2 41171  14.9900 221.5511 0006985 196.1204 163.8896 15.19176107387958
HORYU-4                 
1 41340U 16012D   22355.40578342  .00005513  00000+0  37515-3 0  9999
2 41340  31.0041 244.0747 0012975 264.1724  95.7434 15.04737519375897
E-ST@R-II               
1 41459U 16025D   22355.44861869  .00015394  00000+0  59296-3 0  9995
2 41459  98.1911 175.2760 0132057 353.1281   6.8230 15.18625229365827
AAUSAT 4                
1 41460U 16025E   22355.33115918  .00033194  00000+0  10210-2 0  9992
2 41460  98.1768 183.4350 0105139 322.2347 162.2629 15.28260392366384
